NAVSTAR 77 (USA 289)    
1 43873U 18109A   23246.17670955  .00000002  00000+0  00000+0 0  9991
2 43873  55.1925 132.4112 0025625 191.2479 357.6601  2.00568709 34654
